{
  "norad_id": 63379,
  "name": "STARLINK-33636",
  "history": [
    {
      "epoch": "2026-03-28T21:36:14.038272Z",
      "apogee_km": 475.5921285161867,
      "perigee_km": 474.62993249270403,
      "latitude_deg": -9.44793053785989e-06,
      "longitude_deg": 172.6492236084384,
      "height_km": 476.38108693945105,
      "semi_major_axis_km": 6853.2480305044455,
      "eccentricity": 7.02e-05,
      "inclination_deg": 53.1615,
      "raan_deg": 323.0217,
      "arg_perigee_deg": 140.4072,
      "mean_anomaly_deg": 219.698,
      "mean_motion_rev_day": 15.30234845
    }
  ]
}